{"type": "FeatureCollection", "features": [ {"type": "Feature", "properties": {"norad_id": 37216, "name": "COSMO-SKYMED 4", "group": "resource", "lat": 59.10892577267015, "lon": 15.472515269024099, "alt_km": 616.0088872419274, "timestamp": "2025-12-26T23:26:41.810403+00:00", "meta": {"OBJECT_NAME": "COSMO-SKYMED 4", "OBJECT_ID": "2010-060A", "EPOCH": "2025-12-26T18:02:42.768960", "MEAN_MOTION": 14.82164667, "ECCENTRICITY": 0.000142, "INCLINATION": 97.8809, "RA_OF_ASC_NODE": 181.8642, "ARG_OF_PERICENTER": 82.4035, "MEAN_ANOMALY": 277.7339, "EPHEMERIS_TYPE": 0, "CLASSIFICATION_TYPE": "U", "NORAD_CAT_ID": 37216, "ELEMENT_SET_NO": 999, "REV_AT_EPOCH": 81902, "BSTAR": 0.00017354, "MEAN_MOTION_DOT": 1.33e-05, "MEAN_MOTION_DDOT": 0}, "tle": {"line1": "1 37216U 10060A   25360.75188390  .00001330  00000+0  17354-3 0  9992", "line2": "2 37216  97.8809 181.8642 0001420  82.4035 277.7339 14.82164667819024"}}, "geometry": {"type": "Point", "coordinates": [15.472515269024099, 59.10892577267015]}}, {"type": "Feature", "properties": {"norad_id": 37387, "name": "RESOURCESAT-2", "group": "resource", "lat": -45.859730940885555, "lon": -124.70657589411758, "alt_km": 829.7014052827326, "timestamp": "2025-12-26T23:26:41.810413+00:00", "meta": {"OBJECT_NAME": "RESOURCESAT-2", "OBJECT_ID": "2011-015A", "EPOCH": "2025-12-26T17:18:54.133632", "MEAN_MOTION": 14.21595326, "ECCENTRICITY": 0.0005753, "INCLINATION": 98.7858, "RA_OF_ASC_NODE": 64.2093, "ARG_OF_PERICENTER": 4.1964, "MEAN_ANOMALY": 355.926, "EPHEMERIS_TYPE": 0, "CLASSIFICATION_TYPE": "U", "NORAD_CAT_ID": 37387, "ELEMENT_SET_NO": 999, "REV_AT_EPOCH": 76167, "BSTAR": 7.5964e-05, "MEAN_MOTION_DOT": 1.22e-06, "MEAN_MOTION_DDOT": 0}, "tle": {"line1": "1 37387U 11015A   25360.72145988  .00000122  00000+0  75964-4 0  9995", "line2": "2 37387  98.7858  64.2093 0005753   4.1964 355.9260 14.21595326761678"}}, "geometry": {"type": "Point", "coordinates": [-124.70657589411758, -45.859730940885555]}}, {"type": "Feature", "properties": {"norad_id": 37781, "name": "HAIYANG-2A", "group": "resource", "lat": -64.43302227158864, "lon": 161.57499734646228, "alt_km": 976.313945623574, "timestamp": "2025-12-26T23:26:41.810422+00:00", "meta": {"OBJECT_NAME": "HAIYANG-2A", "OBJECT_ID": "2011-043A", "EPOCH": "2025-12-26T17:01:50.716128", "MEAN_MOTION": 13.78835432, "ECCENTRICITY": 0.0001552, "INCLINATION": 99.3383, "RA_OF_ASC_NODE": 1.4288, "ARG_OF_PERICENTER": 65.0881, "MEAN_ANOMALY": 295.0431, "EPHEMERIS_TYPE": 0, "CLASSIFICATION_TYPE": "U", "NORAD_CAT_ID": 37781, "ELEMENT_SET_NO": 999, "REV_AT_EPOCH": 72291, "BSTAR": -0.00020719, "MEAN_MOTION_DOT": -2.55e-06, "MEAN_MOTION_DDOT": 0}, "tle": {"line1": "1 37781U 11043A   25360.70961477 -.00000255  00000+0 -20719-3 0  9997", "line2": "2 37781  99.3383   1.4288 0001552  65.0881 295.0431 13.78835432722916"}}, "geometry": {"type": "Point", "coordinates": [161.57499734646228, -64.43302227158864]}}, {"type": "Feature", "properties": {"norad_id": 37791, "name": "RASAT", "group": "resource", "lat": -59.92593196486273, "lon": -104.14879168606187, "alt_km": 686.4348452940567, "timestamp": "2025-12-26T23:26:41.810431+00:00", "meta": {"OBJECT_NAME": "RASAT", "OBJECT_ID": "2011-044D", "EPOCH": "2025-12-26T19:35:34.649664", "MEAN_MOTION": 14.67929197, "ECCENTRICITY": 0.002123, "INCLINATION": 98.0638, "RA_OF_ASC_NODE": 89.8645, "ARG_OF_PERICENTER": 22.339, "MEAN_ANOMALY": 91.0227, "EPHEMERIS_TYPE": 0, "CLASSIFICATION_TYPE": "U", "NORAD_CAT_ID": 37791, "ELEMENT_SET_NO": 999, "REV_AT_EPOCH": 76789, "BSTAR": 0.00014164, "MEAN_MOTION_DOT": 7.64e-06, "MEAN_MOTION_DDOT": 0}, "tle": {"line1": "1 37791U 11044D   25360.81637326  .00000764  00000+0  14164-3 0  9994", "line2": "2 37791  98.0638  89.8645 0021230  22.3390  91.0227 14.67929197767893"}}, "geometry": {"type": "Point", "coordinates": [-104.14879168606187, -59.92593196486273]}}, {"type": "Feature", "properties": {"norad_id": 37841, "name": "SRMSAT", "group": "resource", "lat": -11.706694575702649, "lon": -123.42640003014529, "alt_km": 855.8424541477698, "timestamp": "2025-12-26T23:26:41.810440+00:00", "meta": {"OBJECT_NAME": "SRMSAT", "OBJECT_ID": "2011-058D", "EPOCH": "2025-12-26T18:04:39.351072", "MEAN_MOTION": 14.11516169, "ECCENTRICITY": 0.0011981, "INCLINATION": 19.9732, "RA_OF_ASC_NODE": 23.141, "ARG_OF_PERICENTER": 106.5213, "MEAN_ANOMALY": 50.9064, "EPHEMERIS_TYPE": 0, "CLASSIFICATION_TYPE": "U", "NORAD_CAT_ID": 37841, "ELEMENT_SET_NO": 999, "REV_AT_EPOCH": 73342, "BSTAR": 9.6487e-05, "MEAN_MOTION_DOT": 4.42e-06, "MEAN_MOTION_DDOT": 0}, "tle": {"line1": "1 37841U 11058D   25360.75323323  .00000442  00000+0  96487-4 0  9999", "line2": "2 37841  19.9732  23.1410 0011981 106.5213  50.9064 14.11516169733423"}}, "geometry": {"type": "Point", "coordinates": [-123.42640003014529, -11.706694575702649]}}, {"type": "Feature", "properties": {"norad_id": 38012, "name": "PLEIADES 1A", "group": "resource", "lat": -78.81785816336543, "lon": 120.21557297244227, "alt_km": 705.8116303033439, "timestamp": "2025-12-26T23:26:41.810450+00:00", "meta": {"OBJECT_NAME": "PLEIADES 1A", "OBJECT_ID": "2011-076F", "EPOCH": "2025-12-26T19:23:36.586176", "MEAN_MOTION": 14.58574707, "ECCENTRICITY": 0.0001066, "INCLINATION": 98.1803, "RA_OF_ASC_NODE": 73.3583, "ARG_OF_PERICENTER": 75.5057, "MEAN_ANOMALY": 36.2846, "EPHEMERIS_TYPE": 0, "CLASSIFICATION_TYPE": "U", "NORAD_CAT_ID": 38012, "ELEMENT_SET_NO": 999, "REV_AT_EPOCH": 74686, "BSTAR": 0.00013023, "MEAN_MOTION_DOT": 5.6e-06, "MEAN_MOTION_DDOT": 0}, "tle": {"line1": "1 38012U 11076F   25360.80806234  .00000560  00000+0  13023-3 0  9998", "line2": "2 38012  98.1803  73.3583 0001066  75.5057  36.2846 14.58574707746864"}}, "geometry": {"type": "Point", "coordinates": [120.21557297244227, -78.81785816336543]}}, {"type": "Feature", "properties": {"norad_id": 38038, "name": "ZIYUAN 1-02C (ZY 1-02C)", "group": "resource", "lat": -33.80470166403401, "lon": -118.97248276496637, "alt_km": 773.2897404302194, "timestamp": "2025-12-26T23:26:41.810459+00:00", "meta": {"OBJECT_NAME": "ZIYUAN 1-02C (ZY 1-02C)", "OBJECT_ID": "2011-079A", "EPOCH": "2025-12-26T18:07:51.227328", "MEAN_MOTION": 14.38028122, "ECCENTRICITY": 0.0007564, "INCLINATION": 98.431, "RA_OF_ASC_NODE": 66.5095, "ARG_OF_PERICENTER": 101.7505, "MEAN_ANOMALY": 46.6901, "EPHEMERIS_TYPE": 0, "CLASSIFICATION_TYPE": "U", "NORAD_CAT_ID": 38038, "ELEMENT_SET_NO": 999, "REV_AT_EPOCH": 73442, "BSTAR": 0.00023395, "MEAN_MOTION_DOT": 6.65e-06, "MEAN_MOTION_DDOT": 0}, "tle": {"line1": "1 38038U 11079A   25360.75545402  .00000665  00000+0  23395-3 0  9999", "line2": "2 38038  98.4310  66.5095 0007564 101.7505  46.6901 14.38028122734428"}}, "geometry": {"type": "Point", "coordinates": [-118.97248276496637, -33.80470166403401]}}, {"type": "Feature", "properties": {"norad_id": 38338, "name": "ARIRANG-3 (KOMPSAT-3)", "group": "resource", "lat": -23.117825988275676, "lon": -40.73701262153578, "alt_km": 690.8995719448503, "timestamp": "2025-12-26T23:26:41.810468+00:00", "meta": {"OBJECT_NAME": "ARIRANG-3 (KOMPSAT-3)", "OBJECT_ID": "2012-025B", "EPOCH": "2025-12-26T18:37:22.918944", "MEAN_MOTION": 14.61730951, "ECCENTRICITY": 0.0004655, "INCLINATION": 98.3342, "RA_OF_ASC_NODE": 315.4726, "ARG_OF_PERICENTER": 287.7265, "MEAN_ANOMALY": 72.3427, "EPHEMERIS_TYPE": 0, "CLASSIFICATION_TYPE": "U", "NORAD_CAT_ID": 38338, "ELEMENT_SET_NO": 999, "REV_AT_EPOCH": 72615, "BSTAR": 0.00014269, "MEAN_MOTION_DOT": 6.63e-06, "MEAN_MOTION_DDOT": 0}, "tle": {"line1": "1 38338U 12025B   25360.77595971  .00000663  00000+0  14269-3 0  9990", "line2": "2 38338  98.3342 315.4726 0004655 287.7265  72.3427 14.61730951726154"}}, "geometry": {"type": "Point", "coordinates": [-40.73701262153578, -23.117825988275676]}}, {"type": "Feature", "properties": {"norad_id": 38709, "name": "EXACTVIEW-1 (ADS-1B)", "group": "resource", "lat": -69.10305588969644, "lon": -94.75310166107883, "alt_km": 812.4240571993923, "timestamp": "2025-12-26T23:26:41.810477+00:00", "meta": {"OBJECT_NAME": "EXACTVIEW-1 (ADS-1B)", "OBJECT_ID": "2012-039C", "EPOCH": "2025-12-26T13:50:35.905344", "MEAN_MOTION": 14.24913533, "ECCENTRICITY": 0.0010075, "INCLINATION": 98.9638, "RA_OF_ASC_NODE": 109.2573, "ARG_OF_PERICENTER": 312.4557, "MEAN_ANOMALY": 47.5769, "EPHEMERIS_TYPE": 0, "CLASSIFICATION_TYPE": "U", "NORAD_CAT_ID": 38709, "ELEMENT_SET_NO": 999, "REV_AT_EPOCH": 69812, "BSTAR": 9.4103e-05, "MEAN_MOTION_DOT": 1.73e-06, "MEAN_MOTION_DDOT": 0}, "tle": {"line1": "1 38709U 12039C   25360.57680446  .00000173  00000+0  94103-4 0  9999", "line2": "2 38709  98.9638 109.2573 0010075 312.4557  47.5769 14.24913533698128"}}, "geometry": {"type": "Point", "coordinates": [-94.75310166107883, -69.10305588969644]}}, {"type": "Feature", "properties": {"norad_id": 38755, "name": "SPOT 6", "group": "resource", "lat": -20.67277124484548, "lon": -117.60431630070458, "alt_km": 703.6073934071464, "timestamp": "2025-12-26T23:26:41.810486+00:00", "meta": {"OBJECT_NAME": "SPOT 6", "OBJECT_ID": "2012-047A", "EPOCH": "2025-12-26T17:35:16.804032", "MEAN_MOTION": 14.58544761, "ECCENTRICITY": 0.0001223, "INCLINATION": 98.1549, "RA_OF_ASC_NODE": 65.2578, "ARG_OF_PERICENTER": 76.8526, "MEAN_ANOMALY": 283.281, "EPHEMERIS_TYPE": 0, "CLASSIFICATION_TYPE": "U", "NORAD_CAT_ID": 38755, "ELEMENT_SET_NO": 999, "REV_AT_EPOCH": 70791, "BSTAR": 0.0001083, "MEAN_MOTION_DOT": 4.58e-06, "MEAN_MOTION_DDOT": 0}, "tle": {"line1": "1 38755U 12047A   25360.73283338  .00000458  00000+0  10830-3 0  9996", "line2": "2 38755  98.1549  65.2578 0001223  76.8526 283.2810 14.58544761707914"}}, "geometry": {"type": "Point", "coordinates": [-117.60431630070458, -20.67277124484548]}}]}